[{"OBJECT_NAME":"STARLINK-31909","OBJECT_ID":"2024-084K","EPOCH":"2026-03-09T22:10:01.074720","MEAN_MOTION":15.27588132,"ECCENTRICITY":0.00023834,"INCLINATION":43.0074,"RA_OF_ASC_NODE":40.1087,"ARG_OF_PERICENTER":233.3616,"MEAN_ANOMALY":126.7017,"EPHEMERIS_TYPE":0,"CLASSIFICATION_TYPE":"U","NORAD_CAT_ID":59663,"ELEMENT_SET_NO":999,"REV_AT_EPOCH":10441,"BSTAR":-3.5387704e-5,"MEAN_MOTION_DOT":-1.237e-5,"MEAN_MOTION_DDOT":0},{"OBJECT_NAME":"OBJECT B","OBJECT_ID":"2024-203B","EPOCH":"2026-03-09T23:52:52.928256","MEAN_MOTION":15.27506959,"ECCENTRICITY":0.00103904,"INCLINATION":97.4268,"RA_OF_ASC_NODE":139.5887,"ARG_OF_PERICENTER":321.1475,"MEAN_ANOMALY":38.9016,"EPHEMERIS_TYPE":0,"CLASSIFICATION_TYPE":"U","NORAD_CAT_ID":61870,"ELEMENT_SET_NO":999,"REV_AT_EPOCH":7381,"BSTAR":0.00063263842,"MEAN_MOTION_DOT":0.00016997,"MEAN_MOTION_DDOT":0}]
